start=new Date('2021-10-17T00:00:00.000Z').valueOf();
sats=[{"BSTAR":"0.00014457000000","OBJECT_ID":"2021-017BM","SITE":"AFETR","CENTER_NAME":"EARTH","RA_OF_ASC_NODE":"218.8526","INCLINATION":"53.0559","OBJECT_NAME":"STARLINK-2223","PERIOD":"95.592","DECAY_DATE":null,"TIME_SYSTEM":"UTC","EPHEMERIS_TYPE":"0","RCS_SIZE":"LARGE","REV_AT_EPOCH":"3575","NORAD_CAT_ID":"47781","MEAN_MOTION_DDOT":"0.0000000000000","FILE":"3166610","SEMIMAJOR_AXIS":"6925.358","EPOCH":"2021-10-16T05:16:39.758304","TLE_LINE2":"2 47781  53.0559 218.8526 0001610  67.4588 292.6571 15.06396991 35755","GP_ID":"187358245","ECCENTRICITY":"0.00016100","CLASSIFICATION_TYPE":"U","ELEMENT_SET_NO":"999","REF_FRAME":"TEME","MEAN_ANOMALY":"292.6571","OBJECT_TYPE":"PAYLOAD","LAUNCH_DATE":"2021-03-04","MEAN_MOTION":"15.06396991","TLE_LINE1":"1 47781U 21017BM  21289.21990461  .00001872  00000-0  14457-3 0  9994","COUNTRY_CODE":"US","ARG_OF_PERICENTER":"67.4588","MEAN_ELEMENT_THEORY":"SGP4","APOAPSIS":"548.338","PERIAPSIS":"546.108","MEAN_MOTION_DOT":"0.00001872"},{"CLASSIFICATION_TYPE":"U","ELEMENT_SET_NO":"999","ECCENTRICITY":"0.00015560","EPOCH":"2021-10-16T07:18:46.690848","GP_ID":"187356993","TLE_LINE2":"2 47787  53.0559 258.4764 0001556  63.8859 296.2290 15.06378911 34620","LAUNCH_DATE":"2021-03-11","REF_FRAME":"TEME","OBJECT_TYPE":"PAYLOAD","MEAN_ANOMALY":"296.2290","APOAPSIS":"548.356","MEAN_ELEMENT_THEORY":"SGP4","ARG_OF_PERICENTER":"63.8859","COUNTRY_CODE":"US","TLE_LINE1":"1 47787U 21018A   21289.30470707 -.00000326  00000-0 -29791-5 0  9991","MEAN_MOTION":"15.06378911","MEAN_MOTION_DOT":"-0.00000326","PERIAPSIS":"546.201","SITE":"AFETR","CENTER_NAME":"EARTH","OBJECT_ID":"2021-018A","BSTAR":"-0.00000297910000","DECAY_DATE":null,"OBJECT_NAME":"STARLINK-2257","PERIOD":"95.593","RA_OF_ASC_NODE":"258.4764","INCLINATION":"53.0559","EPHEMERIS_TYPE":"0","RCS_SIZE":"LARGE","TIME_SYSTEM":"UTC","SEMIMAJOR_AXIS":"6925.413","FILE":"3166610","MEAN_MOTION_DDOT":"0.0000000000000","REV_AT_EPOCH":"3462","NORAD_CAT_ID":"47787"},{"DECAY_DATE":null,"OBJECT_NAME":"STARLINK-2314","PERIOD":"95.084","INCLINATION":"53.0533","RA_OF_ASC_NODE":"231.2642","SITE":"AFETR","CENTER_NAME":"EARTH","OBJECT_ID":"2021-018B","BSTAR":"-0.01672900000000","SEMIMAJOR_AXIS":"6900.807","FILE":"3166325","MEAN_MOTION_DDOT":"0.0000000000000","NORAD_CAT_ID":"47788","REV_AT_EPOCH":"3469","RCS_SIZE":"LARGE","EPHEMERIS_TYPE":"0","TIME_SYSTEM":"UTC","LAUNCH_DATE":"2021-03-11","MEAN_ANOMALY":"243.6370","OBJECT_TYPE":"PAYLOAD","REF_FRAME":"TEME","ELEMENT_SET_NO":"999","CLASSIFICATION_TYPE":"U","ECCENTRICITY":"0.00023780","TLE_LINE2":"2 47788  53.0533 231.2642 0002378 116.4866 243.6370 15.14443043 34693","GP_ID":"187330025","EPOCH":"2021-10-16T13:37:34.725792","MEAN_MOTION_DOT":"-0.00298918","PERIAPSIS":"521.031","APOAPSIS":"524.313","MEAN_ELEMENT_THEORY":"SGP4","ARG_OF_PERICENTER":"116.4866","TLE_LINE1":"1 47788U 21018B   21289.56776303 -.00298918  00000-0 -16729-1 0  9990","COUNTRY_CODE":"US","MEAN_MOTION":"15.14443043"},{"GP_ID":"187357995","TLE_LINE2":"2 47789  53.0558 238.4866 0001765  73.4079 286.7104 15.06397598 34917","EPOCH":"2021-10-16T07:10:47.187264","ECCENTRICITY":"0.00017650","CLASSIFICATION_TYPE":"U","ELEMENT_SET_NO":"999","OBJECT_TYPE":"PAYLOAD","MEAN_ANOMALY":"286.7104","REF_FRAME":"TEME","LAUNCH_DATE":"2021-03-11","MEAN_MOTION":"15.06397598","TLE_LINE1":"1 47789U 21018C   21289.29915726  .00003995  00000-0  28699-3 0  9993","COUNTRY_CODE":"US","ARG_OF_PERICENTER":"73.4079","MEAN_ELEMENT_THEORY":"SGP4","APOAPSIS":"548.443","PERIAPSIS":"545.999","MEAN_MOTION_DOT":"0.00003995","BSTAR":"0.00028699000000","OBJECT_ID":"2021-018C","CENTER_NAME":"EARTH","SITE":"AFETR","INCLINATION":"53.0558","RA_OF_ASC_NODE":"238.4866","PERIOD":"95.592","OBJECT_NAME":"STARLINK-2315","DECAY_DATE":null,"TIME_SYSTEM":"UTC","EPHEMERIS_TYPE":"0","RCS_SIZE":"MEDIUM","NORAD_CAT_ID":"47789","REV_AT_EPOCH":"3491","MEAN_MOTION_DDOT":"0.0000000000000","FILE":"3166610","SEMIMAJOR_AXIS":"6925.356"},{"LAUNCH_DATE":"2021-03-11","MEAN_ANOMALY":"341.5091","OBJECT_TYPE":"PAYLOAD","REF_FRAME":"TEME","CLASSIFICATION_TYPE":"U","ELEMENT_SET_NO":"999","ECCENTRICITY":"0.00025390","TLE_LINE2":"2 47790  53.0543 229.8919 0002539  18.6000 341.5091 15.26407221 35026","GP_ID":"187357746","EPOCH":"2021-10-16T03:01:09.153696","MEAN_MOTION_DOT":"-0.00462306","PERIAPSIS":"484.822","APOAPSIS":"488.308","MEAN_ELEMENT_THEORY":"SGP4","ARG_OF_PERICENTER":"18.6000","TLE_LINE1":"1 47790U 21018D   21289.12580039 -.00462306  00000-0 -18631-1 0  9992","COUNTRY_CODE":"US","MEAN_MOTION":"15.26407221","DECAY_DATE":null,"OBJECT_NAME":"STARLINK-2319","PERIOD":"94.339","INCLINATION":"53.0543","RA_OF_ASC_NODE":"229.8919","CENTER_NAME":"EARTH","SITE":"AFETR","OBJECT_ID":"2021-018D","BSTAR":"-0.01863100000000","SEMIMAJOR_AXIS":"6864.700","FILE":"3166610","MEAN_MOTION_DDOT":"0.0000000000000","NORAD_CAT_ID":"47790","REV_AT_EPOCH":"3502","EPHEMERIS_TYPE":"0","RCS_SIZE":"LARGE","TIME_SYSTEM":"UTC"},{"TIME_SYSTEM":"UTC","RCS_SIZE":"LARGE","EPHEMERIS_TYPE":"0","MEAN_MOTION_DDOT":"0.0000000000000","REV_AT_EPOCH":"3463","NORAD_CAT_ID":"47791","SEMIMAJOR_AXIS":"6925.416","FILE":"3166610","BSTAR":"0.00000620780000","CENTER_NAME":"EARTH","SITE":"AFETR","OBJECT_ID":"2021-018E","OBJECT_NAME":"STARLINK-2322","PERIOD":"95.594","RA_OF_ASC_NODE":"258.5161","INCLINATION":"53.0569","DECAY_DATE":null,"COUNTRY_CODE":"US","TLE_LINE1":"1 47791U 21018E   21289.29364935 -.00000189  00000-0  62078-5 0  9990","MEAN_MOTION":"15.06377938","APOAPSIS":"548.265","ARG_OF_PERICENTER":"82.2697","MEAN_ELEMENT_THEORY":"SGP4","PERIAPSIS":"546.297","MEAN_MOTION_DOT":"-0.00000189","ECCENTRICITY":"0.00014210","EPOCH":"2021-10-16T07:02:51.303840","TLE_LINE2":"2 47791  53.0569 258.5161 0001421  82.2697 277.8453 15.06377938 34639","GP_ID":"187356494","CLASSIFICATION_TYPE":"U","ELEMENT_SET_NO":"999","REF_FRAME":"TEME","OBJECT_TYPE":"PAYLOAD","MEAN_ANOMALY":"277.8453","LAUNCH_DATE":"2021-03-11"},{"BSTAR":"0.00006370800000","OBJECT_ID":"2021-018F","CENTER_NAME":"EARTH","SITE":"AFETR","RA_OF_ASC_NODE":"237.2695","INCLINATION":"53.0562","PERIOD":"95.592","OBJECT_NAME":"STARLINK-2334","DECAY_DATE":null,"TIME_SYSTEM":"UTC","EPHEMERIS_TYPE":"0","RCS_SIZE":"LARGE","REV_AT_EPOCH":"3460","NORAD_CAT_ID":"47792","MEAN_MOTION_DDOT":"0.0000000000000","FILE":"3166329","SEMIMAJOR_AXIS":"6925.350","EPOCH":"2021-10-16T13:43:33.616704","TLE_LINE2":"2 47792  53.0562 237.2695 0001571  72.1040 288.0120 15.06399684 34609","GP_ID":"187329721","ECCENTRICITY":"0.00015710","CLASSIFICATION_TYPE":"U","ELEMENT_SET_NO":"999","REF_FRAME":"TEME","OBJECT_TYPE":"PAYLOAD","MEAN_ANOMALY":"288.0120","LAUNCH_DATE":"2021-03-11","MEAN_MOTION":"15.06399684","TLE_LINE1":"1 47792U 21018F   21289.57191686  .00000668  00000-0  63708-4 0  9994","COUNTRY_CODE":"US","MEAN_ELEMENT_THEORY":"SGP4","ARG_OF_PERICENTER":"72.1040","APOAPSIS":"548.302","PERIAPSIS":"546.127","MEAN_MOTION_DOT":"0.00000668"},{"EPHEMERIS_TYPE":"0","RCS_SIZE":"LARGE","TIME_SYSTEM":"UTC","SEMIMAJOR_AXIS":"6925.379","FILE":"3166610","MEAN_MOTION_DDOT":"0.0000000000000","REV_AT_EPOCH":"3490","NORAD_CAT_ID":"47793","SITE":"AFETR","CENTER_NAME":"EARTH","OBJECT_ID":"2021-018G","BSTAR":"0.00002210100000","DECAY_DATE":null,"OBJECT_NAME":"STARLINK-2338","PERIOD":"95.593","RA_OF_ASC_NODE":"238.3861","INCLINATION":"53.0554","APOAPSIS":"548.333","MEAN_ELEMENT_THEORY":"SGP4","ARG_OF_PERICENTER":"72.9657","TLE_LINE1":"1 47793U 21018G   21289.32127479  .00000048  00000-0  22101-4 0  9991","COUNTRY_CODE":"US","MEAN_MOTION":"15.06390041","MEAN_MOTION_DOT":"0.00000048","PERIAPSIS":"546.155","ELEMENT_SET_NO":"999","CLASSIFICATION_TYPE":"U","ECCENTRICITY":"0.00015730","EPOCH":"2021-10-16T07:42:38.141856","GP_ID":"187357496","TLE_LINE2":"2 47793  53.0554 238.3861 0001573  72.9657 287.1504 15.06390041 34909","LAUNCH_DATE":"2021-03-11","REF_FRAME":"TEME","MEAN_ANOMALY":"287.1504","OBJECT_TYPE":"PAYLOAD"},{"REF_FRAME":"TEME","MEAN_ANOMALY":"296.5384","OBJECT_TYPE":"PAYLOAD","LAUNCH_DATE":"2021-03-11","EPOCH":"2021-10-16T06:12:25.453152","TLE_LINE2":"2 47794  53.0568 238.6786 0001671  63.5777 296.5384 15.06383968 34902","GP_ID":"187358246","ECCENTRICITY":"0.00016710","CLASSIFICATION_TYPE":"U","ELEMENT_SET_NO":"999","PERIAPSIS":"546.105","MEAN_MOTION_DOT":"0.00000097","MEAN_MOTION":"15.06383968","COUNTRY_CODE":"US","TLE_LINE1":"1 47794U 21018H   21289.25862793  .00000097  00000-0  25417-4 0  9996","MEAN_ELEMENT_THEORY":"SGP4","ARG_OF_PERICENTER":"63.5777","APOAPSIS":"548.420","RA_OF_ASC_NODE":"238.6786","INCLINATION":"53.0568","PERIOD":"95.593","OBJECT_NAME":"STARLINK-2341","DECAY_DATE":null,"BSTAR":"0.00002541700000","OBJECT_ID":"2021-018H","CENTER_NAME":"EARTH","SITE":"AFETR","REV_AT_EPOCH":"3490","NORAD_CAT_ID":"47794","MEAN_MOTION_DDOT":"0.0000000000000","FILE":"3166610","SEMIMAJOR_AXIS":"6925.398","TIME_SYSTEM":"UTC","EPHEMERIS_TYPE":"0","RCS_SIZE":"LARGE"},{"SEMIMAJOR_AXIS":"6925.392","FILE":"3166610","MEAN_MOTION_DDOT":"0.0000000000000","REV_AT_EPOCH":"3496","NORAD_CAT_ID":"47795","RCS_SIZE":"LARGE","EPHEMERIS_TYPE":"0","TIME_SYSTEM":"UTC","DECAY_DATE":null,"PERIOD":"95.593","OBJECT_NAME":"STARLINK-2347","RA_OF_ASC_NODE":"238.4219","INCLINATION":"53.0558","CENTER_NAME":"EARTH","SITE":"AFETR","OBJECT_ID":"2021-018J","BSTAR":"0.00012991000000","MEAN_MOTION_DOT":"0.00001653","PERIAPSIS":"546.223","APOAPSIS":"548.290","ARG_OF_PERICENTER":"69.1775","MEAN_ELEMENT_THEORY":"SGP4","TLE_LINE1":"1 47795U 21018J   21289.31390727  .00001653  00000-0  12991-3 0  9998","COUNTRY_CODE":"US","MEAN_MOTION":"15.06385981","LAUNCH_DATE":"2021-03-11","REF_FRAME":"TEME","OBJECT_TYPE":"PAYLOAD","MEAN_ANOMALY":"290.9373","ELEMENT_SET_NO":"999","CLASSIFICATION_TYPE":"U","ECCENTRICITY":"0.00014930","EPOCH":"2021-10-16T07:32:01.588128","TLE_LINE2":"2 47795  53.0558 238.4219 0001493  69.1775 290.9373 15.06385981 34962","GP_ID":"187356994"}];
